[{"OBJECT_NAME":"STARLINK-36969","OBJECT_ID":"2026-050A","EPOCH":"2026-04-02T06:28:29.894016","MEAN_MOTION":15.80954783,"ECCENTRICITY":0.0001492,"INCLINATION":53.1575,"RA_OF_ASC_NODE":163.6682,"ARG_OF_PERICENTER":72.3946,"MEAN_ANOMALY":287.724,"EPHEMERIS_TYPE":0,"CLASSIFICATION_TYPE":"U","NORAD_CAT_ID":68167,"ELEMENT_SET_NO":999,"REV_AT_EPOCH":420,"BSTAR":0.0012973536,"MEAN_MOTION_DOT":0.00264343,"MEAN_MOTION_DDOT":0},{"OBJECT_NAME":"STARLINK-36984","OBJECT_ID":"2026-050B","EPOCH":"2026-04-02T06:27:24.994656","MEAN_MOTION":15.80960873,"ECCENTRICITY":0.00010768,"INCLINATION":53.1576,"RA_OF_ASC_NODE":163.6629,"ARG_OF_PERICENTER":102.1415,"MEAN_ANOMALY":257.9729,"EPHEMERIS_TYPE":0,"CLASSIFICATION_TYPE":"U","NORAD_CAT_ID":68168,"ELEMENT_SET_NO":999,"REV_AT_EPOCH":420,"BSTAR":0.0012857961,"MEAN_MOTION_DOT":0.00261985,"MEAN_MOTION_DDOT":0},{"OBJECT_NAME":"STARLINK-37077","OBJECT_ID":"2026-050C","EPOCH":"2026-04-02T06:26:19.758336","MEAN_MOTION":15.81054767,"ECCENTRICITY":0.00012048,"INCLINATION":53.1575,"RA_OF_ASC_NODE":163.658,"ARG_OF_PERICENTER":63.4107,"MEAN_ANOMALY":296.7039,"EPHEMERIS_TYPE":0,"CLASSIFICATION_TYPE":"U","NORAD_CAT_ID":68169,"ELEMENT_SET_NO":999,"REV_AT_EPOCH":420,"BSTAR":0.0022267441,"MEAN_MOTION_DOT":0.00467326,"MEAN_MOTION_DDOT":0},{"OBJECT_NAME":"STARLINK-37003","OBJECT_ID":"2026-050D","EPOCH":"2026-04-02T06:25:15.435264","MEAN_MOTION":15.80941439,"ECCENTRICITY":0.00016926,"INCLINATION":53.1575,"RA_OF_ASC_NODE":163.653,"ARG_OF_PERICENTER":88.9402,"MEAN_ANOMALY":271.1815,"EPHEMERIS_TYPE":0,"CLASSIFICATION_TYPE":"U","NORAD_CAT_ID":68170,"ELEMENT_SET_NO":999,"REV_AT_EPOCH":420,"BSTAR":0.0010766482,"MEAN_MOTION_DOT":0.00217933,"MEAN_MOTION_DDOT":0},{"OBJECT_NAME":"STARLINK-37034","OBJECT_ID":"2026-050E","EPOCH":"2026-04-02T06:24:10.122912","MEAN_MOTION":15.81073773,"ECCENTRICITY":0.00011134,"INCLINATION":53.1579,"RA_OF_ASC_NODE":163.6481,"ARG_OF_PERICENTER":78.0091,"MEAN_ANOMALY":282.1056,"EPHEMERIS_TYPE":0,"CLASSIFICATION_TYPE":"U","NORAD_CAT_ID":68171,"ELEMENT_SET_NO":999,"REV_AT_EPOCH":420,"BSTAR":0.0023310841,"MEAN_MOTION_DOT":0.00491062,"MEAN_MOTION_DDOT":0},{"OBJECT_NAME":"STARLINK-37031","OBJECT_ID":"2026-050F","EPOCH":"2026-04-02T06:23:05.775648","MEAN_MOTION":15.80943244,"ECCENTRICITY":0.00017612,"INCLINATION":53.1579,"RA_OF_ASC_NODE":163.6422,"ARG_OF_PERICENTER":112.2921,"MEAN_ANOMALY":247.8289,"EPHEMERIS_TYPE":0,"CLASSIFICATION_TYPE":"U","NORAD_CAT_ID":68172,"ELEMENT_SET_NO":999,"REV_AT_EPOCH":420,"BSTAR":0.0009275271,"MEAN_MOTION_DOT":0.0018699,"MEAN_MOTION_DDOT":0},{"OBJECT_NAME":"STARLINK-37076","OBJECT_ID":"2026-050G","EPOCH":"2026-04-02T06:22:00.960096","MEAN_MOTION":15.80950315,"ECCENTRICITY":0.00015253,"INCLINATION":53.1578,"RA_OF_ASC_NODE":163.6378,"ARG_OF_PERICENTER":102.1464,"MEAN_ANOMALY":257.9729,"EPHEMERIS_TYPE":0,"CLASSIFICATION_TYPE":"U","NORAD_CAT_ID":68173,"ELEMENT_SET_NO":999,"REV_AT_EPOCH":420,"BSTAR":0.0011143712,"MEAN_MOTION_DOT":0.00225895,"MEAN_MOTION_DDOT":0},{"OBJECT_NAME":"STARLINK-37078","OBJECT_ID":"2026-050H","EPOCH":"2026-04-02T06:20:56.133312","MEAN_MOTION":15.80952187,"ECCENTRICITY":0.00016223,"INCLINATION":53.1577,"RA_OF_ASC_NODE":163.6329,"ARG_OF_PERICENTER":66.4736,"MEAN_ANOMALY":293.6457,"EPHEMERIS_TYPE":0,"CLASSIFICATION_TYPE":"U","NORAD_CAT_ID":68174,"ELEMENT_SET_NO":999,"REV_AT_EPOCH":420,"BSTAR":0.0011932305,"MEAN_MOTION_DOT":0.0024242,"MEAN_MOTION_DDOT":0},{"OBJECT_NAME":"STARLINK-36886","OBJECT_ID":"2026-050J","EPOCH":"2026-04-02T06:19:51.710880","MEAN_MOTION":15.80942595,"ECCENTRICITY":0.00021239,"INCLINATION":53.1584,"RA_OF_ASC_NODE":163.6278,"ARG_OF_PERICENTER":52.3792,"MEAN_ANOMALY":307.7423,"EPHEMERIS_TYPE":0,"CLASSIFICATION_TYPE":"U","NORAD_CAT_ID":68175,"ELEMENT_SET_NO":999,"REV_AT_EPOCH":420,"BSTAR":0.0013059667,"MEAN_MOTION_DOT":0.00266009,"MEAN_MOTION_DDOT":0},{"OBJECT_NAME":"STARLINK-36905","OBJECT_ID":"2026-050K","EPOCH":"2026-04-02T06:18:46.839168","MEAN_MOTION":15.80990944,"ECCENTRICITY":0.00021486,"INCLINATION":53.1579,"RA_OF_ASC_NODE":163.6223,"ARG_OF_PERICENTER":47.6932,"MEAN_ANOMALY":312.4273,"EPHEMERIS_TYPE":0,"CLASSIFICATION_TYPE":"U","NORAD_CAT_ID":68176,"ELEMENT_SET_NO":999,"REV_AT_EPOCH":420,"BSTAR":0.0016988259,"MEAN_MOTION_DOT":0.0035046,"MEAN_MOTION_DDOT":0},{"OBJECT_NAME":"STARLINK-36668","OBJECT_ID":"2026-050L","EPOCH":"2026-04-02T06:17:42.072000","MEAN_MOTION":15.80997618,"ECCENTRICITY":0.00023788,"INCLINATION":53.1584,"RA_OF_ASC_NODE":163.6176,"ARG_OF_PERICENTER":33.7699,"MEAN_ANOMALY":326.3475,"EPHEMERIS_TYPE":0,"CLASSIFICATION_TYPE":"U","NORAD_CAT_ID":68177,"ELEMENT_SET_NO":999,"REV_AT_EPOCH":420,"BSTAR":0.0017918598,"MEAN_MOTION_DOT":0.00370684,"MEAN_MOTION_DDOT":0},{"OBJECT_NAME":"STARLINK-36677","OBJECT_ID":"2026-050M","EPOCH":"2026-04-02T06:16:36.830496","MEAN_MOTION":15.80992396,"ECCENTRICITY":0.00012623,"INCLINATION":53.1586,"RA_OF_ASC_NODE":163.612,"ARG_OF_PERICENTER":99.7382,"MEAN_ANOMALY":260.3783,"EPHEMERIS_TYPE":0,"CLASSIFICATION_TYPE":"U","NORAD_CAT_ID":68178,"ELEMENT_SET_NO":999,"REV_AT_EPOCH":420,"BSTAR":0.0016407255,"MEAN_MOTION_DOT":0.0033798,"MEAN_MOTION_DDOT":0},{"OBJECT_NAME":"STARLINK-37052","OBJECT_ID":"2026-050N","EPOCH":"2026-04-02T06:15:32.001120","MEAN_MOTION":15.80972029,"ECCENTRICITY":0.00017305,"INCLINATION":53.1582,"RA_OF_ASC_NODE":163.6074,"ARG_OF_PERICENTER":111.6036,"MEAN_ANOMALY":248.5172,"EPHEMERIS_TYPE":0,"CLASSIFICATION_TYPE":"U","NORAD_CAT_ID":68179,"ELEMENT_SET_NO":999,"REV_AT_EPOCH":420,"BSTAR":0.0014142019,"MEAN_MOTION_DOT":0.00289288,"MEAN_MOTION_DDOT":0},{"OBJECT_NAME":"STARLINK-37035","OBJECT_ID":"2026-050P","EPOCH":"2026-04-02T06:14:27.244320","MEAN_MOTION":15.80966508,"ECCENTRICITY":0.00014932,"INCLINATION":53.1584,"RA_OF_ASC_NODE":163.6019,"ARG_OF_PERICENTER":92.7399,"MEAN_ANOMALY":267.3794,"EPHEMERIS_TYPE":0,"CLASSIFICATION_TYPE":"U","NORAD_CAT_ID":68180,"ELEMENT_SET_NO":999,"REV_AT_EPOCH":420,"BSTAR":0.0014267059,"MEAN_MOTION_DOT":0.00291866,"MEAN_MOTION_DDOT":0},{"OBJECT_NAME":"STARLINK-37032","OBJECT_ID":"2026-050Q","EPOCH":"2026-04-02T06:13:22.696608","MEAN_MOTION":15.80929578,"ECCENTRICITY":0.00015562,"INCLINATION":53.1587,"RA_OF_ASC_NODE":163.5975,"ARG_OF_PERICENTER":86.6696,"MEAN_ANOMALY":273.4504,"EPHEMERIS_TYPE":0,"CLASSIFICATION_TYPE":"U","NORAD_CAT_ID":68181,"ELEMENT_SET_NO":999,"REV_AT_EPOCH":420,"BSTAR":0.0009284444,"MEAN_MOTION_DOT":0.00187057,"MEAN_MOTION_DDOT":0},{"OBJECT_NAME":"STARLINK-37082","OBJECT_ID":"2026-050R","EPOCH":"2026-04-02T06:12:17.799840","MEAN_MOTION":15.80943778,"ECCENTRICITY":0.00018224,"INCLINATION":53.1585,"RA_OF_ASC_NODE":163.592,"ARG_OF_PERICENTER":61.1551,"MEAN_ANOMALY":298.9655,"EPHEMERIS_TYPE":0,"CLASSIFICATION_TYPE":"U","NORAD_CAT_ID":68182,"ELEMENT_SET_NO":999,"REV_AT_EPOCH":420,"BSTAR":0.0013089595,"MEAN_MOTION_DOT":0.00266652,"MEAN_MOTION_DDOT":0}]
