STARLINK-36969          
1 68167U 26050A   26092.26979044  .00264343  00000+0  12974-2 0  9997
2 68167  53.1575 163.6682 0001492  72.3946 287.7240 15.80954783  4201
STARLINK-36984          
1 68168U 26050B   26092.26903929  .00261985  00000+0  12858-2 0  9997
2 68168  53.1576 163.6629 0001076 102.1415 257.9729 15.80960873  4203
STARLINK-37077          
1 68169U 26050C   26092.26828424  .00467326  00000+0  22267-2 0  9996
2 68169  53.1575 163.6580 0001204  63.4107 296.7039 15.81054767  4201
STARLINK-37003          
1 68170U 26050D   26092.26753976  .00217933  00000+0  10766-2 0  9995
2 68170  53.1575 163.6530 0001692  88.9402 271.1815 15.80941439  4208
STARLINK-37034          
1 68171U 26050E   26092.26678383  .00491062  00000+0  23311-2 0  9991
2 68171  53.1579 163.6481 0001113  78.0091 282.1056 15.81073773  4207
STARLINK-37031          
1 68172U 26050F   26092.26603907  .00186990  00000+0  92753-3 0  9990
2 68172  53.1579 163.6422 0001761 112.2921 247.8289 15.80943244  4209
STARLINK-37076          
1 68173U 26050G   26092.26528889  .00225895  00000+0  11144-2 0  9998
2 68173  53.1578 163.6378 0001525 102.1464 257.9729 15.80950315  4205
STARLINK-37078          
1 68174U 26050H   26092.26453858  .00242420  00000+0  11932-2 0  9990
2 68174  53.1577 163.6329 0001622  66.4736 293.6457 15.80952187  4207
STARLINK-36886          
1 68175U 26050J   26092.26379295  .00266009  00000+0  13060-2 0  9996
2 68175  53.1584 163.6278 0002123  52.3792 307.7423 15.80942595  4204
STARLINK-36905          
1 68176U 26050K   26092.26304212  .00350460  00000+0  16988-2 0  9991
2 68176  53.1579 163.6223 0002148  47.6932 312.4273 15.80990944  4206
STARLINK-36668          
1 68177U 26050L   26092.26229250  .00370684  00000+0  17919-2 0  9995
2 68177  53.1584 163.6176 0002378  33.7699 326.3475 15.80997618  4204
STARLINK-36677          
1 68178U 26050M   26092.26153739  .00337980  00000+0  16407-2 0  9997
2 68178  53.1586 163.6120 0001262  99.7382 260.3783 15.80992396  4205
STARLINK-37052          
1 68179U 26050N   26092.26078705  .00289288  00000+0  14142-2 0  9998
2 68179  53.1582 163.6074 0001730 111.6036 248.5172 15.80972029  4201
STARLINK-37035          
1 68180U 26050P   26092.26003755  .00291866  00000+0  14267-2 0  9996
2 68180  53.1584 163.6019 0001493  92.7399 267.3794 15.80966508  4205
STARLINK-37032          
1 68181U 26050Q   26092.25929047  .00187057  00000+0  92844-3 0  9991
2 68181  53.1587 163.5975 0001556  86.6696 273.4504 15.80929578  4204
STARLINK-37082          
1 68182U 26050R   26092.25853935  .00266652  00000+0  13090-2 0  9998
2 68182  53.1585 163.5920 0001822  61.1551 298.9655 15.80943778  4204
